COSMOS 2361 [-]         
1 25590U 98076A   23021.47870910  .00000107  00000+0  99080-4 0  9992
2 25590  82.9324  44.9957 0030627 324.5956 145.0088 13.73041490206456
COSMOS 2378 [-]         
1 26818U 01023A   23021.14931770  .00000114  00000+0  10522-3 0  9999
2 26818  82.9257  62.8859 0031568 268.6933 145.3985 13.73985537 84208
COSMOS 2389 [-]         
1 27436U 02026A   23020.51583734  .00000096  00000+0  83446-4 0  9998
2 27436  82.9511   9.3745 0047465 128.9774 352.3078 13.74993651 36197
COSMOS 2398 [-]         
1 27818U 03023A   23021.38347800  .00000080  00000+0  70427-4 0  9996
2 27818  82.9507 331.0366 0031588 164.3017 312.4668 13.72228540983271
COSMOS 2407 [+]         
1 28380U 04028A   23020.84915476  .00000108  00000+0  94513-4 0  9990
2 28380  82.9602 275.4710 0040190 128.3022 303.9349 13.76133728929055
COSMOS 2414 [+]         
1 28521U 05002A   23020.42828273  .00000123  00000+0  90619-4 0  9992
2 28521  82.9488 264.1814 0038976 275.9259  83.7463 13.87680791911335
COSMOS 2429 [-]         
1 32052U 07038A   23021.46470827  .00000084  00000+0  71596-4 0  9999
2 32052  82.9789  41.6809 0039856 105.0933 255.4638 13.74981216770961
COSMOS 2454 [-]         
1 35635U 09039A   23020.41039521  .00000121  00000+0  86030-4 0  9999
2 35635  82.9546 250.1370 0018431 214.8527 318.2869 13.89709530684631
COSMOS 2463 [+]         
1 36519U 10017A   23020.70475524  .00000092  00000+0  84902-4 0  9991
2 36519  82.9593  83.2476 0035642 342.3559 133.3050 13.71491027637560
